{"fetched_at":"2026-04-01T16:59:04Z","count":11445,"tles":[{"name":"STARLINK-37191","line1":"1 68334U 26059P   26090.66668981 -.00016431  00000+0 -79843-4 0  9994","line2":"2 68334  53.1594 252.6374 0001122  66.1027 198.0644 15.80878542  2574","category":"Starlink"}]}